GLOBALSTAR M075 [+]     
1 37192U 10054E   23354.46722729 -.00000091  00000+0  68777-4 0  9997
2 37192  51.9966  40.0924 0000540 126.9201 339.0548 12.62268280607214
GLOBALSTAR M073 [+]     
1 37193U 10054F   23354.22912198 -.00000090  00000+0  79212-4 0  9998
2 37193  52.0079 314.2179 0000448  51.3872  54.0885 12.62270370609013
GLOBALSTAR M083 [+]     
1 37739U 11033A   23354.08373516 -.00000088  00000+0  87787-4 0  9994
2 37739  51.9859 264.1373 0001025  71.0904  33.8366 12.62264033578012
GLOBALSTAR M088 [+]     
1 37740U 11033B   23353.81940604 -.00000095  00000+0  49293-4 0  9992
2 37740  51.9704 170.8908 0001364  99.8381   3.5529 12.62268851573521
GLOBALSTAR M091 [+]     
1 37741U 11033C   23354.70381880 -.00000084  00000+0  10995-3 0  9991
2 37741  51.9983 130.7774 0001286 114.7770 348.6462 12.62269749574683
GLOBALSTAR M085 [+]     
1 37742U 11033D   23354.44797311 -.00000096  00000+0  42971-4 0  9996
2 37742  51.9878  83.0774 0000977 125.3459 314.9917 12.62265888574901
GLOBALSTAR M081 [+]     
1 37743U 11033E   23354.55842083 -.00000098  00000+0  30919-4 0  9997
2 37743  51.9966  85.1916 0001009 136.6134 326.0248 12.62267572575064
GLOBALSTAR M089 [+]     
1 37744U 11033F   23354.43938347 -.00000080  00000+0  13010-3 0  9997
2 37744  51.9954  39.8859 0000314 162.3986 299.4409 12.62270265575899
